#dP2021  1  9 18  0  0.00000000      96 __u+U ITR00 EXT  IAC
## 2139 583200.00000000   900.00000000 59223 0.7500000000000
+  115   C06C07C08C09C10C11C12C13C14C16C19C20C21C22C23C24C25
+        C26C27C28C29C30C32C33C34C35C36C37C38C39C40C43C44C45
+        C46E01E02E03E04E05E07E08E09E11E12E13E14E15E18E19E21
+        E24E25E26E27E30E31E33E36G01G02G03G04G05G06G07G08G09
+        G10G11G12G13G14G15G16G17G18G19G20G21G22G23G24G25G26
+        G27G28G29G30G31G32J01J02J03R01R02R03R04R05R07R08R09
+        R11R12R13R14R15R16R17R18R19R20R21R22R24  0  0  0  0
++        12 11  9 10 11  9  8  7  9 10  9  8  8  9  9  9  8
++         7 10  9  8  9  7  9  7  9  9  8 12 12 13 11 11 10
++        12  8 10  9  9  9  8  7  8  8  8  9  7  9  7  9  8
++         9  8  7  7  7  8  9  8  7  8  8  7  8  8  7  7  8
++         8  8  8  8  7  8  6  8  7  8  9  7  7  9  7  9  8
++         8  8  7  7  6  8 10 10 10  8  8 10  8  9 10  9  7
++         9  9 10  8  8  8  8  8  8  9  7  9  8  0  0  0  0
%c M  cc GPS ccc cccc cccc cccc cccc ccccc ccccc ccccc ccccc
%c cc cc ccc ccc cccc cccc cccc cccc ccccc ccccc ccccc ccccc
%f  0.0000000  0.000000000  0.00000000000  0.000000000000000
%f  0.0000000  0.000000000  0.00000000000  0.000000000000000
%i    0    0    0    0      0      0      0      0         0
%i    0    0    0    0      0      0      0      0         0
/* IAC                                ULTRA-RAPID PREDICTION
/* S/V CLOCKS ARE ALIGNED TO GNSS TIME                      
/* G:C1WC2W R:C1PC2P E:C1XC5X C:C2IC6I J:C1CC2S             
/* PCV:IGS14_2134 OL/AL:FES2004  NONE     YN ORB:CoN CLK:CoN
*  2021 01 09 18  0  0.00000000
PC06 -23671.862902  25747.957632 -23468.513777    120.833240
PC07 -12531.339169  38646.866777 -10073.554603   -211.199331
PC08  -5539.499707  22513.835112  35382.029463   -878.622774
PC09  -6470.928896  25987.564765 -32413.851626    814.818097
PC10  -3515.804179  41764.405896   1138.588699   -107.061866
PC11   2218.888964  15176.431577  23381.585765   -874.842871
PC12 -17588.838609  13929.159158  16622.367063    719.141407
PC13   7884.747840  30059.337006  28743.011460     90.600182
PC14  -1384.749006  25700.460412 -10701.129596   -133.390893
PC16 -21913.162710  26042.715848 -24946.497921   -654.741387
PC19  -5794.533285 -20577.424275  17962.539144    684.890942
PC20   7365.448904 -26747.972739   3131.810256   -909.312196
PC21 -16765.865682  17138.334818  14280.157544   -786.240639
PC22 -15951.307003  -2337.189460  22774.187028   -839.543253
PC23  21689.861350  11358.821802  13400.060406   -883.130101
PC24   -114.476321  20814.557972 -18613.459072   -739.444127
PC25  16360.666425  22400.079475  -3181.078673   -891.453554
PC26 -14514.917114   7752.315343 -22542.901292    965.339123
PC27  24633.119931  -9870.729745  -8617.812167    463.652637
PC28  26311.125907   2215.594461   9048.557925   -123.725279
PC29 -13037.037377 -12469.685101 -21292.860856    336.326585
PC30   8425.607130 -16410.966263 -20931.067716    428.995084
PC32  16640.370625 -17266.915207 -14265.191136   -882.565117
PC33   5856.638961  20605.264816 -17877.591319   -907.106123
PC34  -7783.821991  16464.366910  21148.178650   -766.936555
PC35 -26298.268365  -1506.502537  -9263.897285   -473.475828
PC36 -15614.384187 -22859.441561   3506.485562   -781.201271
PC37  15267.001541  -6584.861846  22429.244233   -860.678733
PC38  -5525.154007  24958.453417  33579.201218    122.925514
PC39 -18170.989439  27636.913136 -26223.158408     27.261911
PC40 -11101.241337  40442.334299  -3534.855271    119.580725
PC43  12515.956674  12841.358935  21375.361641   -544.558066
PC44 -24433.653796  10612.010875   8371.545200    -21.907352
PC45 -21647.982121 -11278.125482 -13497.653361    330.881715
PC46   -693.979065 -21096.548221  18235.617966    459.909231
PE01   6914.137517 -22674.552622  17720.071808  -1021.283774
PE02  -6829.414979  22783.920169 -17635.157686    189.833823
PE03 -17903.971294  22776.652423  -6051.258854   -385.482075
PE04   1054.806351 -21142.537955  20686.233831   -685.427920
PE05 -24509.668442  11067.744794  12363.023660   -314.271359
PE07  16748.437736   6988.218505 -23386.983061   -485.532949
PE08   -724.794521  20923.175161 -20927.016222   6064.504023
PE09 -16776.871844  -6677.320855  23448.718180   5804.608955
PE11 -26031.652582 -12293.759565  -6911.122671   6496.702840
PE12  -9169.156713 -17642.535377 -21923.712446   5415.020050
PE13  25874.638312  12380.592870   7315.439064    409.953708
PE14 -17302.754173  15805.223316   7452.411416  -1288.984621
PE15   9291.450611  17550.223547  21964.178973    835.074597
PE18  11747.211117 -23116.314757 -18844.430363  -1408.731145
PE19  19373.635998 -22031.988819   3905.218875    174.259924
PE21  16031.758349  -3882.415979  24577.715799   -641.938811
PE24 -15934.520774 -18319.081319 -16920.069109   -680.746737
PE25 -16070.217361   3708.017915 -24574.033454   -523.981910
PE26  26988.610877   -460.161153 -12144.365995   2284.483898
PE27  16150.702621  17750.196260  17343.126007     54.599059
PE30   6161.781275  28955.054047   -757.294345   3276.300714
PE31  -6769.222347 -28809.957688     48.883244   -477.211464
PE33  12731.224954 -12384.506889 -23665.640572   -464.732145
PE36 -27224.010753     73.633796  11634.733229    456.476090
PG01 -22129.962704 -14799.729483  -2790.337786    782.945768
PG02   4557.395024  17579.984344  20038.137254   -564.129965
PG03 -12823.480943 -14206.976542  18378.947275    -51.980081
PG04 -17046.881016  -6144.539874  19436.827366   -171.402662
PG05   3403.253475  26082.202293  -3047.290838    -30.554430
PG06 -10146.415273  11108.412128  21956.384834     -4.641732
PG07 -23778.897715  -4441.836634 -11174.905968     15.275227
PG08 -10007.471606 -11435.715259 -21792.822598     -5.993080
PG09 -23407.462413   4813.501835  11547.921276   -310.952528
PG10  11841.164435 -15759.522860 -17568.905700    -35.444141
PG11 -17898.053004 -12419.731067 -15401.259386    -57.651670
PG12   9979.234541  18323.608594  16282.244750     15.239633
PG13  -1099.694934  16279.721189 -21070.621266     84.098154
PG14 -13404.722172  13598.563337 -18469.120836     82.614929
PG15  12504.724923  10538.305020 -21321.593783   -177.466792
PG16    159.959222 -26185.724456  -2726.281270   -262.661029
PG17 -21367.518105  15005.339481   5253.767341    378.103951
PG18  22595.422799   2251.961155 -13829.836437    339.987432
PG19 -17297.275081  16370.369652  11385.479423    -54.107666
PG20  15440.294417  -3202.225341 -21426.705662    525.239052
PG21 -18617.006449 -16220.703399  -9564.058221     85.338208
PG22 -11238.093379 -21036.358518  12053.450851   -701.117217
PG23  14842.605814  -4524.879775 -21577.460089    115.317426
PG24  20444.156597  15735.021920  -7358.944483      3.897122
PG25  14922.989457   4064.182109  21372.033299     56.413394
PG26   5322.104172 -24211.931504   9122.924986     27.424637
PG27   3375.943354 -17511.229478 -19712.562354    -52.607211
PG28 -12186.993595  17004.571755 -15905.650053    631.958575
PG29  23314.554334  -2428.476533  12492.992777   -272.604307
PG30 -18006.807518   5336.303282 -18817.659358   -366.255758
PG31   8364.241392 -12799.170095  21648.719901    -92.870634
PG32  20162.765221 -16403.205063   5103.682733     13.376014
PJ01 -32645.082892  25339.971401  13219.746470   -336.099771
PJ02 -19874.335176  23711.757936 -24142.448400      0.603737
PJ03 -28741.055888  27708.118784  18990.538611     -5.548190
PR01  -1576.312357  19149.008732 -16776.374843     73.253971
PR02  11703.621946   1245.755193 -22587.864553    462.178497
PR03  16054.321968 -15001.049319 -12873.150385     28.837997
PR04  11264.288893 -22533.815005   3992.863767     69.294544
PR05    251.064370 -17404.043593  18640.500673     64.436576
PR07 -16099.914444  15468.823360  12410.903442    -42.112927
PR08 -11295.160642  22543.501834  -3887.709737    -56.761254
PR09 -16003.991813 -13159.910129 -14908.251345     17.688513
PR11    887.248041  18205.788058 -17832.904885      4.721857
PR12  11767.550588  22573.589623  -1822.570392    195.299704
PR13  15897.045569  13510.829464  14663.115026    -49.091299
PR14  10514.491050  -3837.122458  22929.974283     59.667455
PR15   -756.799811 -18474.813647  17585.721241    105.971943
PR16 -12592.355125 -22079.668512    945.850290    -10.028529
PR17  23460.781999  -3824.315317  -9290.551021    389.801486
PR18  10327.189388  -9365.133530 -21326.448222     62.595022
PR19  -7231.287956 -10227.442421 -22212.360494   -127.201714
PR20 -23453.431187  -5009.554306  -8734.956270   -430.764934
PR21 -22896.452450   4223.157453  10396.811561   -179.202706
PR22  -9313.526637   9490.419245  21782.085860    -91.602584
PR24  23779.803552   4617.324495   8038.231647     27.172221
EOF
